GLOBALSTAR M023         
1 25621U 99004A   24155.62971032 -.00000061  00000+0  23935-3 0  9997
2 25621  52.0090 126.1193 0010445  11.9003 159.9152 12.62455492167911
GLOBALSTAR M040         
1 25622U 99004B   24155.37714525 -.00000060  00000+0  24736-3 0  9991
2 25622  51.9898 130.4833 0000735 309.2214 215.9618 12.61975810167429
GLOBALSTAR M036         
1 25623U 99004C   24155.31847796 -.00000032  00000+0  74602-3 0  9999
2 25623  51.9932 158.9093 0011244  43.2120  58.3944 11.86566996134006
GLOBALSTAR M038         
1 25624U 99004D   24155.56098528 -.00000081  00000+0  11668-3 0  9995
2 25624  51.9980  81.9452 0002207 358.1896 172.3959 12.32500846155685
GLOBALSTAR M022         
1 25649U 99012A   24155.52215659 -.00000059  00000+0  34032-3 0  9998
2 25649  52.0035 240.2720 0002973 141.8414 231.2507 12.02483360130827
GLOBALSTAR M041         
1 25650U 99012B   24155.58698249 -.00000087  00000+0 -17923-4 0  9999
2 25650  52.0009 109.9995 0002640 303.6361  56.4224 11.96660648132952
GLOBALSTAR M046         
1 25651U 99012C   24155.39439258 -.00000182  00000+0 -10302-2 0  9990
2 25651  52.0029 204.5799 0002530 212.4835 161.1271 12.09391362137837
GLOBALSTAR M037         
1 25652U 99012D   24155.55675487 -.00000050  00000+0  29752-3 0  9998
2 25652  52.0005 257.1035 0002192  84.0558 289.5606 12.62407424163458
